; Aero-Disc Outer Casing - PETG Parametric
G28 ; Home all axes
G90 ; Absolute positioning
M104 S240
M140 S70
M109 S240
M190 S70
G92 E0
G1 Z0.3 F1200
; Layer 1 Z=0.2
G1 Z0.2 F900
G1 X150.0 Y110.0 E0.0 F1800
G1 X149.392 Y116.946 E0.15 F1800
G1 X147.588 Y123.681 E0.3 F1800
G1 X144.641 Y130.0 E0.45 F1800
G1 X140.642 Y135.712 E0.6 F1800
G1 X135.712 Y140.642 E0.75 F1800
G1 X130.0 Y144.641 E0.9 F1800
G1 X123.681 Y147.588 E1.05 F1800
G1 X116.946 Y149.392 E1.2 F1800
G1 X110.0 Y150.0 E1.35 F1800
G1 X103.054 Y149.392 E1.5 F1800
G1 X96.319 Y147.588 E1.65 F1800
G1 X90.0 Y144.641 E1.8 F1800
G1 X84.288 Y140.642 E1.95 F1800
G1 X79.358 Y135.712 E2.1 F1800
G1 X75.359 Y130.0 E2.25 F1800
G1 X72.412 Y123.681 E2.4 F1800
G1 X70.608 Y116.946 E2.55 F1800
G1 X70.0 Y110.0 E2.7 F1800
G1 X70.608 Y103.054 E2.85 F1800
G1 X72.412 Y96.319 E3.0 F1800
G1 X75.359 Y90.0 E3.15 F1800
G1 X79.358 Y84.288 E3.3 F1800
G1 X84.288 Y79.358 E3.45 F1800
G1 X90.0 Y75.359 E3.6 F1800
G1 X96.319 Y72.412 E3.75 F1800
G1 X103.054 Y70.608 E3.9 F1800
G1 X110.0 Y70.0 E4.05 F1800
G1 X116.946 Y70.608 E4.2 F1800
G1 X123.681 Y72.412 E4.35 F1800
G1 X130.0 Y75.359 E4.5 F1800
G1 X135.712 Y79.358 E4.65 F1800
G1 X140.642 Y84.288 E4.8 F1800
G1 X144.641 Y90.0 E4.95 F1800
G1 X147.588 Y96.319 E5.1 F1800
G1 X149.392 Y103.054 E5.25 F1800
G1 X150.0 Y110.0 E5.4 F1800
; Layer 2 Z=0.4
G1 Z0.4 F900
G1 X150.0 Y110.0 E0.0 F1800
G1 X149.392 Y116.946 E0.15 F1800
G1 X147.588 Y123.681 E0.3 F1800
G1 X144.641 Y130.0 E0.45 F1800
G1 X140.642 Y135.712 E0.6 F1800
G1 X135.712 Y140.642 E0.75 F1800
G1 X130.0 Y144.641 E0.9 F1800
G1 X123.681 Y147.588 E1.05 F1800
G1 X116.946 Y149.392 E1.2 F1800
G1 X110.0 Y150.0 E1.35 F1800
G1 X103.054 Y149.392 E1.5 F1800
G1 X96.319 Y147.588 E1.65 F1800
G1 X90.0 Y144.641 E1.8 F1800
G1 X84.288 Y140.642 E1.95 F1800
G1 X79.358 Y135.712 E2.1 F1800
G1 X75.359 Y130.0 E2.25 F1800
G1 X72.412 Y123.681 E2.4 F1800
G1 X70.608 Y116.946 E2.55 F1800
G1 X70.0 Y110.0 E2.7 F1800
G1 X70.608 Y103.054 E2.85 F1800
G1 X72.412 Y96.319 E3.0 F1800
G1 X75.359 Y90.0 E3.15 F1800
G1 X79.358 Y84.288 E3.3 F1800
G1 X84.288 Y79.358 E3.45 F1800
G1 X90.0 Y75.359 E3.6 F1800
G1 X96.319 Y72.412 E3.75 F1800
G1 X103.054 Y70.608 E3.9 F1800
G1 X110.0 Y70.0 E4.05 F1800
G1 X116.946 Y70.608 E4.2 F1800
G1 X123.681 Y72.412 E4.35 F1800
G1 X130.0 Y75.359 E4.5 F1800
G1 X135.712 Y79.358 E4.65 F1800
G1 X140.642 Y84.288 E4.8 F1800
G1 X144.641 Y90.0 E4.95 F1800
G1 X147.588 Y96.319 E5.1 F1800
G1 X149.392 Y103.054 E5.25 F1800
G1 X150.0 Y110.0 E5.4 F1800
; Layer 3 Z=0.6
G1 Z0.6 F900
G1 X150.0 Y110.0 E0.0 F1800
G1 X149.392 Y116.946 E0.15 F1800
G1 X147.588 Y123.681 E0.3 F1800
G1 X144.641 Y130.0 E0.45 F1800
G1 X140.642 Y135.712 E0.6 F1800
G1 X135.712 Y140.642 E0.75 F1800
G1 X130.0 Y144.641 E0.9 F1800
G1 X123.681 Y147.588 E1.05 F1800
G1 X116.946 Y149.392 E1.2 F1800
G1 X110.0 Y150.0 E1.35 F1800
G1 X103.054 Y149.392 E1.5 F1800
G1 X96.319 Y147.588 E1.65 F1800
G1 X90.0 Y144.641 E1.8 F1800
G1 X84.288 Y140.642 E1.95 F1800
G1 X79.358 Y135.712 E2.1 F1800
G1 X75.359 Y130.0 E2.25 F1800
G1 X72.412 Y123.681 E2.4 F1800
G1 X70.608 Y116.946 E2.55 F1800
G1 X70.0 Y110.0 E2.7 F1800
G1 X70.608 Y103.054 E2.85 F1800
G1 X72.412 Y96.319 E3.0 F1800
G1 X75.359 Y90.0 E3.15 F1800
G1 X79.358 Y84.288 E3.3 F1800
G1 X84.288 Y79.358 E3.45 F1800
G1 X90.0 Y75.359 E3.6 F1800
G1 X96.319 Y72.412 E3.75 F1800
G1 X103.054 Y70.608 E3.9 F1800
G1 X110.0 Y70.0 E4.05 F1800
G1 X116.946 Y70.608 E4.2 F1800
G1 X123.681 Y72.412 E4.35 F1800
G1 X130.0 Y75.359 E4.5 F1800
G1 X135.712 Y79.358 E4.65 F1800
G1 X140.642 Y84.288 E4.8 F1800
G1 X144.641 Y90.0 E4.95 F1800
G1 X147.588 Y96.319 E5.1 F1800
G1 X149.392 Y103.054 E5.25 F1800
G1 X150.0 Y110.0 E5.4 F1800
; Layer 4 Z=0.8
G1 Z0.8 F900
G1 X150.0 Y110.0 E0.0 F1800
G1 X149.392 Y116.946 E0.15 F1800
G1 X147.588 Y123.681 E0.3 F1800
G1 X144.641 Y130.0 E0.45 F1800
G1 X140.642 Y135.712 E0.6 F1800
G1 X135.712 Y140.642 E0.75 F1800
G1 X130.0 Y144.641 E0.9 F1800
G1 X123.681 Y147.588 E1.05 F1800
G1 X116.946 Y149.392 E1.2 F1800
G1 X110.0 Y150.0 E1.35 F1800
G1 X103.054 Y149.392 E1.5 F1800
G1 X96.319 Y147.588 E1.65 F1800
G1 X90.0 Y144.641 E1.8 F1800
G1 X84.288 Y140.642 E1.95 F1800
G1 X79.358 Y135.712 E2.1 F1800
G1 X75.359 Y130.0 E2.25 F1800
G1 X72.412 Y123.681 E2.4 F1800
G1 X70.608 Y116.946 E2.55 F1800
G1 X70.0 Y110.0 E2.7 F1800
G1 X70.608 Y103.054 E2.85 F1800
G1 X72.412 Y96.319 E3.0 F1800
G1 X75.359 Y90.0 E3.15 F1800
G1 X79.358 Y84.288 E3.3 F1800
G1 X84.288 Y79.358 E3.45 F1800
G1 X90.0 Y75.359 E3.6 F1800
G1 X96.319 Y72.412 E3.75 F1800
G1 X103.054 Y70.608 E3.9 F1800
G1 X110.0 Y70.0 E4.05 F1800
G1 X116.946 Y70.608 E4.2 F1800
G1 X123.681 Y72.412 E4.35 F1800
G1 X130.0 Y75.359 E4.5 F1800
G1 X135.712 Y79.358 E4.65 F1800
G1 X140.642 Y84.288 E4.8 F1800
G1 X144.641 Y90.0 E4.95 F1800
G1 X147.588 Y96.319 E5.1 F1800
G1 X149.392 Y103.054 E5.25 F1800
G1 X150.0 Y110.0 E5.4 F1800
; Layer 5 Z=1.0
G1 Z1.0 F900
G1 X150.0 Y110.0 E0.0 F1800
G1 X149.392 Y116.946 E0.15 F1800
G1 X147.588 Y123.681 E0.3 F1800
G1 X144.641 Y130.0 E0.45 F1800
G1 X140.642 Y135.712 E0.6 F1800
G1 X135.712 Y140.642 E0.75 F1800
G1 X130.0 Y144.641 E0.9 F1800
G1 X123.681 Y147.588 E1.05 F1800
G1 X116.946 Y149.392 E1.2 F1800
G1 X110.0 Y150.0 E1.35 F1800
G1 X103.054 Y149.392 E1.5 F1800
G1 X96.319 Y147.588 E1.65 F1800
G1 X90.0 Y144.641 E1.8 F1800
G1 X84.288 Y140.642 E1.95 F1800
G1 X79.358 Y135.712 E2.1 F1800
G1 X75.359 Y130.0 E2.25 F1800
G1 X72.412 Y123.681 E2.4 F1800
G1 X70.608 Y116.946 E2.55 F1800
G1 X70.0 Y110.0 E2.7 F1800
G1 X70.608 Y103.054 E2.85 F1800
G1 X72.412 Y96.319 E3.0 F1800
G1 X75.359 Y90.0 E3.15 F1800
G1 X79.358 Y84.288 E3.3 F1800
G1 X84.288 Y79.358 E3.45 F1800
G1 X90.0 Y75.359 E3.6 F1800
G1 X96.319 Y72.412 E3.75 F1800
G1 X103.054 Y70.608 E3.9 F1800
G1 X110.0 Y70.0 E4.05 F1800
G1 X116.946 Y70.608 E4.2 F1800
G1 X123.681 Y72.412 E4.35 F1800
G1 X130.0 Y75.359 E4.5 F1800
G1 X135.712 Y79.358 E4.65 F1800
G1 X140.642 Y84.288 E4.8 F1800
G1 X144.641 Y90.0 E4.95 F1800
G1 X147.588 Y96.319 E5.1 F1800
G1 X149.392 Y103.054 E5.25 F1800
G1 X150.0 Y110.0 E5.4 F1800
; Layer 6 Z=1.2
G1 Z1.2 F900
G1 X150.0 Y110.0 E0.0 F1800
G1 X149.392 Y116.946 E0.15 F1800
G1 X147.588 Y123.681 E0.3 F1800
G1 X144.641 Y130.0 E0.45 F1800
G1 X140.642 Y135.712 E0.6 F1800
G1 X135.712 Y140.642 E0.75 F1800
G1 X130.0 Y144.641 E0.9 F1800
G1 X123.681 Y147.588 E1.05 F1800
G1 X116.946 Y149.392 E1.2 F1800
G1 X110.0 Y150.0 E1.35 F1800
G1 X103.054 Y149.392 E1.5 F1800
G1 X96.319 Y147.588 E1.65 F1800
G1 X90.0 Y144.641 E1.8 F1800
G1 X84.288 Y140.642 E1.95 F1800
G1 X79.358 Y135.712 E2.1 F1800
G1 X75.359 Y130.0 E2.25 F1800
G1 X72.412 Y123.681 E2.4 F1800
G1 X70.608 Y116.946 E2.55 F1800
G1 X70.0 Y110.0 E2.7 F1800
G1 X70.608 Y103.054 E2.85 F1800
G1 X72.412 Y96.319 E3.0 F1800
G1 X75.359 Y90.0 E3.15 F1800
G1 X79.358 Y84.288 E3.3 F1800
G1 X84.288 Y79.358 E3.45 F1800
G1 X90.0 Y75.359 E3.6 F1800
G1 X96.319 Y72.412 E3.75 F1800
G1 X103.054 Y70.608 E3.9 F1800
G1 X110.0 Y70.0 E4.05 F1800
G1 X116.946 Y70.608 E4.2 F1800
G1 X123.681 Y72.412 E4.35 F1800
G1 X130.0 Y75.359 E4.5 F1800
G1 X135.712 Y79.358 E4.65 F1800
G1 X140.642 Y84.288 E4.8 F1800
G1 X144.641 Y90.0 E4.95 F1800
G1 X147.588 Y96.319 E5.1 F1800
G1 X149.392 Y103.054 E5.25 F1800
G1 X150.0 Y110.0 E5.4 F1800
; Layer 7 Z=1.4
G1 Z1.4 F900
G1 X150.0 Y110.0 E0.0 F1800
G1 X149.392 Y116.946 E0.15 F1800
G1 X147.588 Y123.681 E0.3 F1800
G1 X144.641 Y130.0 E0.45 F1800
G1 X140.642 Y135.712 E0.6 F1800
G1 X135.712 Y140.642 E0.75 F1800
G1 X130.0 Y144.641 E0.9 F1800
G1 X123.681 Y147.588 E1.05 F1800
G1 X116.946 Y149.392 E1.2 F1800
G1 X110.0 Y150.0 E1.35 F1800
G1 X103.054 Y149.392 E1.5 F1800
G1 X96.319 Y147.588 E1.65 F1800
G1 X90.0 Y144.641 E1.8 F1800
G1 X84.288 Y140.642 E1.95 F1800
G1 X79.358 Y135.712 E2.1 F1800
G1 X75.359 Y130.0 E2.25 F1800
G1 X72.412 Y123.681 E2.4 F1800
G1 X70.608 Y116.946 E2.55 F1800
G1 X70.0 Y110.0 E2.7 F1800
G1 X70.608 Y103.054 E2.85 F1800
G1 X72.412 Y96.319 E3.0 F1800
G1 X75.359 Y90.0 E3.15 F1800
G1 X79.358 Y84.288 E3.3 F1800
G1 X84.288 Y79.358 E3.45 F1800
G1 X90.0 Y75.359 E3.6 F1800
G1 X96.319 Y72.412 E3.75 F1800
G1 X103.054 Y70.608 E3.9 F1800
G1 X110.0 Y70.0 E4.05 F1800
G1 X116.946 Y70.608 E4.2 F1800
G1 X123.681 Y72.412 E4.35 F1800
G1 X130.0 Y75.359 E4.5 F1800
G1 X135.712 Y79.358 E4.65 F1800
G1 X140.642 Y84.288 E4.8 F1800
G1 X144.641 Y90.0 E4.95 F1800
G1 X147.588 Y96.319 E5.1 F1800
G1 X149.392 Y103.054 E5.25 F1800
G1 X150.0 Y110.0 E5.4 F1800
; Layer 8 Z=1.6
G1 Z1.6 F900
G1 X150.0 Y110.0 E0.0 F1800
G1 X149.392 Y116.946 E0.15 F1800
G1 X147.588 Y123.681 E0.3 F1800
G1 X144.641 Y130.0 E0.45 F1800
G1 X140.642 Y135.712 E0.6 F1800
G1 X135.712 Y140.642 E0.75 F1800
G1 X130.0 Y144.641 E0.9 F1800
G1 X123.681 Y147.588 E1.05 F1800
G1 X116.946 Y149.392 E1.2 F1800
G1 X110.0 Y150.0 E1.35 F1800
G1 X103.054 Y149.392 E1.5 F1800
G1 X96.319 Y147.588 E1.65 F1800
G1 X90.0 Y144.641 E1.8 F1800
G1 X84.288 Y140.642 E1.95 F1800
G1 X79.358 Y135.712 E2.1 F1800
G1 X75.359 Y130.0 E2.25 F1800
G1 X72.412 Y123.681 E2.4 F1800
G1 X70.608 Y116.946 E2.55 F1800
G1 X70.0 Y110.0 E2.7 F1800
G1 X70.608 Y103.054 E2.85 F1800
G1 X72.412 Y96.319 E3.0 F1800
G1 X75.359 Y90.0 E3.15 F1800
G1 X79.358 Y84.288 E3.3 F1800
G1 X84.288 Y79.358 E3.45 F1800
G1 X90.0 Y75.359 E3.6 F1800
G1 X96.319 Y72.412 E3.75 F1800
G1 X103.054 Y70.608 E3.9 F1800
G1 X110.0 Y70.0 E4.05 F1800
G1 X116.946 Y70.608 E4.2 F1800
G1 X123.681 Y72.412 E4.35 F1800
G1 X130.0 Y75.359 E4.5 F1800
G1 X135.712 Y79.358 E4.65 F1800
G1 X140.642 Y84.288 E4.8 F1800
G1 X144.641 Y90.0 E4.95 F1800
G1 X147.588 Y96.319 E5.1 F1800
G1 X149.392 Y103.054 E5.25 F1800
G1 X150.0 Y110.0 E5.4 F1800
; Layer 9 Z=1.8
G1 Z1.8 F900
G1 X150.0 Y110.0 E0.0 F1800
G1 X149.392 Y116.946 E0.15 F1800
G1 X147.588 Y123.681 E0.3 F1800
G1 X144.641 Y130.0 E0.45 F1800
G1 X140.642 Y135.712 E0.6 F1800
G1 X135.712 Y140.642 E0.75 F1800
G1 X130.0 Y144.641 E0.9 F1800
G1 X123.681 Y147.588 E1.05 F1800
G1 X116.946 Y149.392 E1.2 F1800
G1 X110.0 Y150.0 E1.35 F1800
G1 X103.054 Y149.392 E1.5 F1800
G1 X96.319 Y147.588 E1.65 F1800
G1 X90.0 Y144.641 E1.8 F1800
G1 X84.288 Y140.642 E1.95 F1800
G1 X79.358 Y135.712 E2.1 F1800
G1 X75.359 Y130.0 E2.25 F1800
G1 X72.412 Y123.681 E2.4 F1800
G1 X70.608 Y116.946 E2.55 F1800
G1 X70.0 Y110.0 E2.7 F1800
G1 X70.608 Y103.054 E2.85 F1800
G1 X72.412 Y96.319 E3.0 F1800
G1 X75.359 Y90.0 E3.15 F1800
G1 X79.358 Y84.288 E3.3 F1800
G1 X84.288 Y79.358 E3.45 F1800
G1 X90.0 Y75.359 E3.6 F1800
G1 X96.319 Y72.412 E3.75 F1800
G1 X103.054 Y70.608 E3.9 F1800
G1 X110.0 Y70.0 E4.05 F1800
G1 X116.946 Y70.608 E4.2 F1800
G1 X123.681 Y72.412 E4.35 F1800
G1 X130.0 Y75.359 E4.5 F1800
G1 X135.712 Y79.358 E4.65 F1800
G1 X140.642 Y84.288 E4.8 F1800
G1 X144.641 Y90.0 E4.95 F1800
G1 X147.588 Y96.319 E5.1 F1800
G1 X149.392 Y103.054 E5.25 F1800
G1 X150.0 Y110.0 E5.4 F1800
; Layer 10 Z=2.0
G1 Z2.0 F900
G1 X150.0 Y110.0 E0.0 F1800
G1 X149.392 Y116.946 E0.15 F1800
G1 X147.588 Y123.681 E0.3 F1800
G1 X144.641 Y130.0 E0.45 F1800
G1 X140.642 Y135.712 E0.6 F1800
G1 X135.712 Y140.642 E0.75 F1800
G1 X130.0 Y144.641 E0.9 F1800
G1 X123.681 Y147.588 E1.05 F1800
G1 X116.946 Y149.392 E1.2 F1800
G1 X110.0 Y150.0 E1.35 F1800
G1 X103.054 Y149.392 E1.5 F1800
G1 X96.319 Y147.588 E1.65 F1800
G1 X90.0 Y144.641 E1.8 F1800
G1 X84.288 Y140.642 E1.95 F1800
G1 X79.358 Y135.712 E2.1 F1800
G1 X75.359 Y130.0 E2.25 F1800
G1 X72.412 Y123.681 E2.4 F1800
G1 X70.608 Y116.946 E2.55 F1800
G1 X70.0 Y110.0 E2.7 F1800
G1 X70.608 Y103.054 E2.85 F1800
G1 X72.412 Y96.319 E3.0 F1800
G1 X75.359 Y90.0 E3.15 F1800
G1 X79.358 Y84.288 E3.3 F1800
G1 X84.288 Y79.358 E3.45 F1800
G1 X90.0 Y75.359 E3.6 F1800
G1 X96.319 Y72.412 E3.75 F1800
G1 X103.054 Y70.608 E3.9 F1800
G1 X110.0 Y70.0 E4.05 F1800
G1 X116.946 Y70.608 E4.2 F1800
G1 X123.681 Y72.412 E4.35 F1800
G1 X130.0 Y75.359 E4.5 F1800
G1 X135.712 Y79.358 E4.65 F1800
G1 X140.642 Y84.288 E4.8 F1800
G1 X144.641 Y90.0 E4.95 F1800
G1 X147.588 Y96.319 E5.1 F1800
G1 X149.392 Y103.054 E5.25 F1800
G1 X150.0 Y110.0 E5.4 F1800
M104 S0
M140 S0
G1 X0 Y200 F3000
M84